HIMAWARI-8              
1 40267U 14060A   23237.04007578 -.00000271  00000+0  00000+0 0  9997
2 40267   0.0357 289.2421 0000760 229.4232 329.4567  1.00269902 32562
